{
  "links" : {
    "next" : "https://api.nasa.gov/neo/rest/v1/feed?start_date=2015-12-09&end_date=2015-12-09&detailed=true&api_key=t0TVs3DtDT2H8Oy2Zy8m2eVrNsAVKAexjcZXUckd",
    "prev" : "https://api.nasa.gov/neo/rest/v1/feed?start_date=2015-12-07&end_date=2015-12-07&detailed=true&api_key=t0TVs3DtDT2H8Oy2Zy8m2eVrNsAVKAexjcZXUckd",
    "self" : "https://api.nasa.gov/neo/rest/v1/feed?start_date=2015-12-08&end_date=2015-12-08&detailed=true&api_key=t0TVs3DtDT2H8Oy2Zy8m2eVrNsAVKAexjcZXUckd"
  },
  "element_count" : 12,
  "near_earth_objects" : {
    "2015-12-08" : [ {
      "links" : {
        "self" : "https://api.nasa.gov/neo/rest/v1/neo/3360539?api_key=t0TVs3DtDT2H8Oy2Zy8m2eVrNsAVKAexjcZXUckd"
      },
      "neo_reference_id" : "3360539",
      "name" : "(2006 WT29)",
      "nasa_jpl_url" : "http://ssd.jpl.nasa.gov/sbdb.cgi?sstr=3360539",
      "absolute_magnitude_h" : 19.7,
      "estimated_diameter" : {
        "kilometers" : {
          "estimated_diameter_min" : 0.3051792326,
          "estimated_diameter_max" : 0.6824015094
        },
        "meters" : {
          "estimated_diameter_min" : 305.1792325939,
          "estimated_diameter_max" : 682.4015094011
        },
        "miles" : {
          "estimated_diameter_min" : 0.1896295249,
          "estimated_diameter_max" : 0.4240245083
        },
        "feet" : {
          "estimated_diameter_min" : 1001.2442334633,
          "estimated_diameter_max" : 2238.8501681036
        }
      },
      "is_potentially_hazardous_asteroid" : false,
      "close_approach_data" : [ {
        "close_approach_date" : "2015-12-08",
        "epoch_date_close_approach" : 1449561600000,
        "relative_velocity" : {
          "kilometers_per_second" : "17.3000841134",
          "kilometers_per_hour" : "62280.3028082713",
          "miles_per_hour" : "38698.5581532839"
        },
        "miss_distance" : {
          "astronomical" : "0.472688683",
          "lunar" : "183.8759002686",
          "kilometers" : "70713216",
          "miles" : "43939156"
        },
        "orbiting_body" : "Earth"
      } ],
      "orbital_data" : {
        "orbit_id" : "21",
        "orbit_determination_date" : "2017-06-20 06:19:26",
        "orbit_uncertainty" : "0",
        "minimum_orbit_intersection" : ".214721",
        "jupiter_tisserand_invariant" : "3.961",
        "epoch_osculation" : "2458000.5",
        "eccentricity" : ".312757660577098",
        "semi_major_axis" : "1.716264322456021",
        "inclination" : "31.59024451953924",
        "ascending_node_longitude" : "259.5832443649387",
        "orbital_period" : "821.2486877629087",
        "perihelion_distance" : "1.179489508032737",
        "perihelion_argument" : "156.9524126813521",
        "aphelion_distance" : "2.253039136879304",
        "perihelion_time" : "2458138.921917788949",
        "mean_anomaly" : "299.3218020965559",
        "mean_motion" : ".4383568648135613",
        "equinox" : "J2000"
      }
    }, {
      "links" : {
        "self" : "https://api.nasa.gov/neo/rest/v1/neo/3484839?api_key=t0TVs3DtDT2H8Oy2Zy8m2eVrNsAVKAexjcZXUckd"
      },
      "neo_reference_id" : "3484839",
      "name" : "(2010 AO2)",
      "nasa_jpl_url" : "http://ssd.jpl.nasa.gov/sbdb.cgi?sstr=3484839",
      "absolute_magnitude_h" : 22.6,
      "estimated_diameter" : {
        "kilometers" : {
          "estimated_diameter_min" : 0.0802703167,
          "estimated_diameter_max" : 0.1794898848
        },
        "meters" : {
          "estimated_diameter_min" : 80.2703167283,
          "estimated_diameter_max" : 179.4898847799
        },
        "miles" : {
          "estimated_diameter_min" : 0.049877647,
          "estimated_diameter_max" : 0.1115298092
        },
        "feet" : {
          "estimated_diameter_min" : 263.3540659348,
          "estimated_diameter_max" : 588.8775935812
        }
      },
      "is_potentially_hazardous_asteroid" : false,
      "close_approach_data" : [ {
        "close_approach_date" : "2015-12-08",
        "epoch_date_close_approach" : 1449561600000,
        "relative_velocity" : {
          "kilometers_per_second" : "11.8777397749",
          "kilometers_per_hour" : "42759.8631898157",
          "miles_per_hour" : "26569.316102583"
        },
        "miss_distance" : {
          "astronomical" : "0.4449397099",
          "lunar" : "173.0815429688",
          "kilometers" : "66562032",
          "miles" : "41359728"
        },
        "orbiting_body" : "Earth"
      } ],
      "orbital_data" : {
        "orbit_id" : "14",
        "orbit_determination_date" : "2017-04-06 08:58:40",
        "orbit_uncertainty" : "2",
        "minimum_orbit_intersection" : ".167715",
        "jupiter_tisserand_invariant" : "5.923",
        "epoch_osculation" : "2458000.5",
        "eccentricity" : ".3379069354937844",
        "semi_major_axis" : "1.012266820626356",
        "inclination" : "19.58318908242299",
        "ascending_node_longitude" : "289.9645159523118",
        "orbital_period" : "371.9982784090055",
        "perihelion_distance" : ".6702148413664677",
        "perihelion_argument" : "323.5746976903775",
        "aphelion_distance" : "1.354318799886244",
        "perihelion_time" : "2457927.247858354207",
        "mean_anomaly" : "70.88949740646758",
        "mean_motion" : ".9677464141492245",
        "equinox" : "J2000"
      }
    }, {
      "links" : {
        "self" : "https://api.nasa.gov/neo/rest/v1/neo/3730323?api_key=t0TVs3DtDT2H8Oy2Zy8m2eVrNsAVKAexjcZXUckd"
      },
      "neo_reference_id" : "3730323",
      "name" : "(2015 TM178)",
      "nasa_jpl_url" : "http://ssd.jpl.nasa.gov/sbdb.cgi?sstr=3730323",
      "absolute_magnitude_h" : 21.3,
      "estimated_diameter" : {
        "kilometers" : {
          "estimated_diameter_min" : 0.1460679643,
          "estimated_diameter_max" : 0.3266178974
        },
        "meters" : {
          "estimated_diameter_min" : 146.0679642714,
          "estimated_diameter_max" : 326.6178974458
        },
        "miles" : {
          "estimated_diameter_min" : 0.090762397,
          "estimated_diameter_max" : 0.2029508896
        },
        "feet" : {
          "estimated_diameter_min" : 479.2256199,
          "estimated_diameter_max" : 1071.581062656
        }
      },
      "is_potentially_hazardous_asteroid" : false,
      "close_approach_data" : [ {
        "close_approach_date" : "2015-12-08",
        "epoch_date_close_approach" : 1449561600000,
        "relative_velocity" : {
          "kilometers_per_second" : "2.3107893787",
          "kilometers_per_hour" : "8318.841763281",
          "miles_per_hour" : "5169.0047611898"
        },
        "miss_distance" : {
          "astronomical" : "0.3326403076",
          "lunar" : "129.3970794678",
          "kilometers" : "49762284",
          "miles" : "30920850"
        },
        "orbiting_body" : "Earth"
      } ],
      "orbital_data" : {
        "orbit_id" : "19",
        "orbit_determination_date" : "2017-04-06 08:31:24",
        "orbit_uncertainty" : "4",
        "minimum_orbit_intersection" : ".243365",
        "jupiter_tisserand_invariant" : "4.514",
        "epoch_osculation" : "2458000.5",
        "eccentricity" : ".1966986201758126",
        "semi_major_axis" : "1.498309142099672",
        "inclination" : "8.336567850774752",
        "ascending_node_longitude" : "153.1743984489196",
        "orbital_period" : "669.8854901709715",
        "perihelion_distance" : "1.203593801251861",
        "perihelion_argument" : "243.4463623797248",
        "aphelion_distance" : "1.793024482947483",
        "perihelion_time" : "2457979.003865149245",
        "mean_anomaly" : "11.5521363872154",
        "mean_motion" : ".5374052808758688",
        "equinox" : "J2000"
      }
    } ]
  }
}